[{"OBJECT_NAME":"ONEWEB-0290","OBJECT_ID":"2021-075F","EPOCH":"2025-08-17T14:03:20.061504","MEAN_MOTION":13.17650149,"ECCENTRICITY":0.0001306,"INCLINATION":87.9024,"RA_OF_ASC_NODE":66.2572,"ARG_OF_PERICENTER":71.0819,"MEAN_ANOMALY":289.0454,"EPHEMERIS_TYPE":0,"CLASSIFICATION_TYPE":"U","NORAD_CAT_ID":49080,"ELEMENT_SET_NO":999,"REV_AT_EPOCH":19363,"BSTAR":0.00022219,"MEAN_MOTION_DOT":9.9e-7,"MEAN_MOTION_DDOT":0},{"OBJECT_NAME":"ONEWEB-0291","OBJECT_ID":"2021-075G","EPOCH":"2025-08-17T13:41:27.693024","MEAN_MOTION":13.17646107,"ECCENTRICITY":0.0001531,"INCLINATION":87.9032,"RA_OF_ASC_NODE":66.2634,"ARG_OF_PERICENTER":99.3146,"MEAN_ANOMALY":260.8158,"EPHEMERIS_TYPE":0,"CLASSIFICATION_TYPE":"U","NORAD_CAT_ID":49081,"ELEMENT_SET_NO":999,"REV_AT_EPOCH":19362,"BSTAR":0.00020173,"MEAN_MOTION_DOT":9.1e-7,"MEAN_MOTION_DDOT":0},{"OBJECT_NAME":"ONEWEB-0293","OBJECT_ID":"2021-075H","EPOCH":"2025-08-17T14:17:56.766624","MEAN_MOTION":13.17649013,"ECCENTRICITY":0.0001649,"INCLINATION":87.9019,"RA_OF_ASC_NODE":66.2903,"ARG_OF_PERICENTER":87.2074,"MEAN_ANOMALY":272.9247,"EPHEMERIS_TYPE":0,"CLASSIFICATION_TYPE":"U","NORAD_CAT_ID":49082,"ELEMENT_SET_NO":999,"REV_AT_EPOCH":19365,"BSTAR":8.6966e-5,"MEAN_MOTION_DOT":4.7e-7,"MEAN_MOTION_DDOT":0},{"OBJECT_NAME":"ONEWEB-0294","OBJECT_ID":"2021-075J","EPOCH":"2025-08-17T12:35:01.432896","MEAN_MOTION":13.12442317,"ECCENTRICITY":0.0001256,"INCLINATION":87.8862,"RA_OF_ASC_NODE":51.0058,"ARG_OF_PERICENTER":89.1538,"MEAN_ANOMALY":270.9734,"EPHEMERIS_TYPE":0,"CLASSIFICATION_TYPE":"U","NORAD_CAT_ID":49083,"ELEMENT_SET_NO":999,"REV_AT_EPOCH":19474,"BSTAR":-0.00068973,"MEAN_MOTION_DOT":-2.35e-6,"MEAN_MOTION_DDOT":0},{"OBJECT_NAME":"ONEWEB-0295","OBJECT_ID":"2021-075K","EPOCH":"2025-08-17T14:16:42.570624","MEAN_MOTION":13.17649421,"ECCENTRICITY":0.0001628,"INCLINATION":87.9031,"RA_OF_ASC_NODE":66.2917,"ARG_OF_PERICENTER":99.2249,"MEAN_ANOMALY":260.9067,"EPHEMERIS_TYPE":0,"CLASSIFICATION_TYPE":"U","NORAD_CAT_ID":49084,"ELEMENT_SET_NO":999,"REV_AT_EPOCH":19361,"BSTAR":2.925e-5,"MEAN_MOTION_DOT":2.4e-7,"MEAN_MOTION_DDOT":0},{"OBJECT_NAME":"ONEWEB-0296","OBJECT_ID":"2021-075L","EPOCH":"2025-08-17T04:47:52.129824","MEAN_MOTION":13.1244093,"ECCENTRICITY":0.0001364,"INCLINATION":87.885,"RA_OF_ASC_NODE":51.0775,"ARG_OF_PERICENTER":105.9848,"MEAN_ANOMALY":254.1431,"EPHEMERIS_TYPE":0,"CLASSIFICATION_TYPE":"U","NORAD_CAT_ID":49085,"ELEMENT_SET_NO":999,"REV_AT_EPOCH":19470,"BSTAR":0.00095937,"MEAN_MOTION_DOT":3.58e-6,"MEAN_MOTION_DDOT":0},{"OBJECT_NAME":"ONEWEB-0297","OBJECT_ID":"2021-075M","EPOCH":"2025-08-17T12:51:22.661280","MEAN_MOTION":13.12442067,"ECCENTRICITY":0.0001781,"INCLINATION":87.8855,"RA_OF_ASC_NODE":51.0488,"ARG_OF_PERICENTER":92.8378,"MEAN_ANOMALY":267.2954,"EPHEMERIS_TYPE":0,"CLASSIFICATION_TYPE":"U","NORAD_CAT_ID":49086,"ELEMENT_SET_NO":999,"REV_AT_EPOCH":19535,"BSTAR":-0.0011945,"MEAN_MOTION_DOT":-4.17e-6,"MEAN_MOTION_DDOT":0},{"OBJECT_NAME":"ONEWEB-0298","OBJECT_ID":"2021-075N","EPOCH":"2025-08-17T14:22:58.348416","MEAN_MOTION":13.17650278,"ECCENTRICITY":0.0001863,"INCLINATION":87.902,"RA_OF_ASC_NODE":66.2876,"ARG_OF_PERICENTER":91.0802,"MEAN_ANOMALY":269.0543,"EPHEMERIS_TYPE":0,"CLASSIFICATION_TYPE":"U","NORAD_CAT_ID":49087,"ELEMENT_SET_NO":999,"REV_AT_EPOCH":19364,"BSTAR":0.00030839,"MEAN_MOTION_DOT":1.33e-6,"MEAN_MOTION_DDOT":0},{"OBJECT_NAME":"ONEWEB-0299","OBJECT_ID":"2021-075P","EPOCH":"2025-08-17T14:25:12.613152","MEAN_MOTION":13.17647957,"ECCENTRICITY":0.000187,"INCLINATION":87.9032,"RA_OF_ASC_NODE":66.241,"ARG_OF_PERICENTER":93.9213,"MEAN_ANOMALY":266.2132,"EPHEMERIS_TYPE":0,"CLASSIFICATION_TYPE":"U","NORAD_CAT_ID":49088,"ELEMENT_SET_NO":999,"REV_AT_EPOCH":19362,"BSTAR":0.00010932,"MEAN_MOTION_DOT":5.5e-7,"MEAN_MOTION_DDOT":0},{"OBJECT_NAME":"ONEWEB-0300","OBJECT_ID":"2021-075Q","EPOCH":"2025-08-17T12:39:41.686848","MEAN_MOTION":13.12442752,"ECCENTRICITY":0.0002084,"INCLINATION":87.8857,"RA_OF_ASC_NODE":51.0024,"ARG_OF_PERICENTER":86.9445,"MEAN_ANOMALY":273.1922,"EPHEMERIS_TYPE":0,"CLASSIFICATION_TYPE":"U","NORAD_CAT_ID":49089,"ELEMENT_SET_NO":999,"REV_AT_EPOCH":19537,"BSTAR":-0.00084831,"MEAN_MOTION_DOT":-2.92e-6,"MEAN_MOTION_DDOT":0},{"OBJECT_NAME":"ONEWEB-0301","OBJECT_ID":"2021-075R","EPOCH":"2025-08-17T14:06:07.448544","MEAN_MOTION":13.12440551,"ECCENTRICITY":0.0002163,"INCLINATION":87.8853,"RA_OF_ASC_NODE":50.9958,"ARG_OF_PERICENTER":85.3128,"MEAN_ANOMALY":274.8247,"EPHEMERIS_TYPE":0,"CLASSIFICATION_TYPE":"U","NORAD_CAT_ID":49090,"ELEMENT_SET_NO":999,"REV_AT_EPOCH":19474,"BSTAR":0.00038171,"MEAN_MOTION_DOT":1.5e-6,"MEAN_MOTION_DDOT":0},{"OBJECT_NAME":"ONEWEB-0302","OBJECT_ID":"2021-075S","EPOCH":"2025-08-17T13:47:28.185792","MEAN_MOTION":13.12444465,"ECCENTRICITY":0.0001393,"INCLINATION":87.8862,"RA_OF_ASC_NODE":51.0028,"ARG_OF_PERICENTER":93.9501,"MEAN_ANOMALY":266.1787,"EPHEMERIS_TYPE":0,"CLASSIFICATION_TYPE":"U","NORAD_CAT_ID":49091,"ELEMENT_SET_NO":999,"REV_AT_EPOCH":19472,"BSTAR":0.001366,"MEAN_MOTION_DOT":5.04e-6,"MEAN_MOTION_DDOT":0},{"OBJECT_NAME":"ONEWEB-0304","OBJECT_ID":"2021-075T","EPOCH":"2025-08-17T13:48:44.987616","MEAN_MOTION":13.1764939,"ECCENTRICITY":0.0001755,"INCLINATION":87.9028,"RA_OF_ASC_NODE":66.2782,"ARG_OF_PERICENTER":92.2085,"MEAN_ANOMALY":267.9248,"EPHEMERIS_TYPE":0,"CLASSIFICATION_TYPE":"U","NORAD_CAT_ID":49092,"ELEMENT_SET_NO":999,"REV_AT_EPOCH":19359,"BSTAR":0.00016072,"MEAN_MOTION_DOT":7.5e-7,"MEAN_MOTION_DDOT":0},{"OBJECT_NAME":"ONEWEB-0305","OBJECT_ID":"2021-075U","EPOCH":"2025-08-17T13:39:03.824064","MEAN_MOTION":13.17650041,"ECCENTRICITY":0.0001789,"INCLINATION":87.9029,"RA_OF_ASC_NODE":66.255,"ARG_OF_PERICENTER":101.7543,"MEAN_ANOMALY":258.3789,"EPHEMERIS_TYPE":0,"CLASSIFICATION_TYPE":"U","NORAD_CAT_ID":49093,"ELEMENT_SET_NO":999,"REV_AT_EPOCH":19459,"BSTAR":0.00025461,"MEAN_MOTION_DOT":1.12e-6,"MEAN_MOTION_DDOT":0},{"OBJECT_NAME":"ONEWEB-0308","OBJECT_ID":"2021-075V","EPOCH":"2025-08-17T13:38:06.510624","MEAN_MOTION":13.12443673,"ECCENTRICITY":0.0001776,"INCLINATION":87.8855,"RA_OF_ASC_NODE":50.9963,"ARG_OF_PERICENTER":88.9409,"MEAN_ANOMALY":271.1923,"EPHEMERIS_TYPE":0,"CLASSIFICATION_TYPE":"U","NORAD_CAT_ID":49094,"ELEMENT_SET_NO":999,"REV_AT_EPOCH":19575,"BSTAR":0.0014123,"MEAN_MOTION_DOT":5.21e-6,"MEAN_MOTION_DDOT":0},{"OBJECT_NAME":"ONEWEB-0309","OBJECT_ID":"2021-075W","EPOCH":"2025-08-17T13:43:54.040800","MEAN_MOTION":13.17649543,"ECCENTRICITY":0.0001327,"INCLINATION":87.9027,"RA_OF_ASC_NODE":66.2723,"ARG_OF_PERICENTER":86.8236,"MEAN_ANOMALY":273.3047,"EPHEMERIS_TYPE":0,"CLASSIFICATION_TYPE":"U","NORAD_CAT_ID":49095,"ELEMENT_SET_NO":999,"REV_AT_EPOCH":19359,"BSTAR":0.0001694,"MEAN_MOTION_DOT":7.9e-7,"MEAN_MOTION_DDOT":0},{"OBJECT_NAME":"ONEWEB-0310","OBJECT_ID":"2021-075X","EPOCH":"2025-08-17T04:50:12.478848","MEAN_MOTION":13.12440666,"ECCENTRICITY":0.0001653,"INCLINATION":87.8856,"RA_OF_ASC_NODE":51.1154,"ARG_OF_PERICENTER":90.2384,"MEAN_ANOMALY":269.8934,"EPHEMERIS_TYPE":0,"CLASSIFICATION_TYPE":"U","NORAD_CAT_ID":49096,"ELEMENT_SET_NO":999,"REV_AT_EPOCH":19531,"BSTAR":0.0005784,"MEAN_MOTION_DOT":2.21e-6,"MEAN_MOTION_DDOT":0}]
