ONEWEB-0290             
1 49080U 21075F   25229.58564886  .00000099  00000+0  22219-3 0  9992
2 49080  87.9024  66.2572 0001306  71.0819 289.0454 13.17650149193638
ONEWEB-0291             
1 49081U 21075G   25229.57045941  .00000091  00000+0  20173-3 0  9997
2 49081  87.9032  66.2634 0001531  99.3146 260.8158 13.17646107193629
ONEWEB-0293             
1 49082U 21075H   25229.59579591  .00000047  00000+0  86966-4 0  9997
2 49082  87.9019  66.2903 0001649  87.2074 272.9247 13.17649013193655
ONEWEB-0294             
1 49083U 21075J   25229.52432214 -.00000235  00000+0 -68973-3 0  9999
2 49083  87.8862  51.0058 0001256  89.1538 270.9734 13.12442317194747
ONEWEB-0295             
1 49084U 21075K   25229.59493716  .00000024  00000+0  29250-4 0  9991
2 49084  87.9031  66.2917 0001628  99.2249 260.9067 13.17649421193616
ONEWEB-0296             
1 49085U 21075L   25229.19990891  .00000358  00000+0  95937-3 0  9998
2 49085  87.8850  51.0775 0001364 105.9848 254.1431 13.12440930194706
ONEWEB-0297             
1 49086U 21075M   25229.53567895 -.00000417  00000+0 -11945-2 0  9995
2 49086  87.8855  51.0488 0001781  92.8378 267.2954 13.12442067195358
ONEWEB-0298             
1 49087U 21075N   25229.59928644  .00000133  00000+0  30839-3 0  9992
2 49087  87.9020  66.2876 0001863  91.0802 269.0543 13.17650278193641
ONEWEB-0299             
1 49088U 21075P   25229.60084043  .00000055  00000+0  10932-3 0  9996
2 49088  87.9032  66.2410 0001870  93.9213 266.2132 13.17647957193625
ONEWEB-0300             
1 49089U 21075Q   25229.52756582 -.00000292  00000+0 -84831-3 0  9996
2 49089  87.8857  51.0024 0002084  86.9445 273.1922 13.12442752195379
ONEWEB-0301             
1 49090U 21075R   25229.58758621  .00000150  00000+0  38171-3 0  9997
2 49090  87.8853  50.9958 0002163  85.3128 274.8247 13.12440551194743
ONEWEB-0302             
1 49091U 21075S   25229.57463178  .00000504  00000+0  13660-2 0  9995
2 49091  87.8862  51.0028 0001393  93.9501 266.1787 13.12444465194727
ONEWEB-0304             
1 49092U 21075T   25229.57552069  .00000075  00000+0  16072-3 0  9998
2 49092  87.9028  66.2782 0001755  92.2085 267.9248 13.17649390193593
ONEWEB-0305             
1 49093U 21075U   25229.56879426  .00000112  00000+0  25461-3 0  9991
2 49093  87.9029  66.2550 0001789 101.7543 258.3789 13.17650041194590
ONEWEB-0308             
1 49094U 21075V   25229.56813091  .00000521  00000+0  14123-2 0  9994
2 49094  87.8855  50.9963 0001776  88.9409 271.1923 13.12443673195756
ONEWEB-0309             
1 49095U 21075W   25229.57215325  .00000079  00000+0  16940-3 0  9990
2 49095  87.9027  66.2723 0001327  86.8236 273.3047 13.17649543193590
ONEWEB-0310             
1 49096U 21075X   25229.20153332  .00000221  00000+0  57840-3 0  9993
2 49096  87.8856  51.1154 0001653  90.2384 269.8934 13.12440666195313
